NORAD_CAT_ID,OBJECT_NAME,OBJECT_TYPE,EPOCH,MEAN_MOTION,ECCENTRICITY,INCLINATION,RA_OF_ASC_NODE,ARG_OF_PERICENTER,MEAN_ANOMALY,BSTAR,MEAN_MOTION_DOT,MEAN_MOTION_DDOT,TLE_LINE0,TLE_LINE1,TLE_LINE2,SEMIMAJOR_AXIS,PERIOD,APOGEE,PERIGEE,DECAYED
55784.0,STARLINK-5797,PAYLOAD,2024-03-18 11:28:20,14.98326797,0.0002807,70.0009,222.9679,262.7415,97.3425,-9.3223e-07,-1.04e-06,0.0,0 STARLINK-5797,1 55784U 23028AV  24078.47800955 -.00000104  00000-0 -93223-6 0  9995,2 55784  70.0009 222.9679 0002807 262.7415  97.3425 14.98326797 58995,6950.203,96.107,574.019,570.117,0.0
55784.0,STARLINK-5797,PAYLOAD,2024-03-18 19:29:00,14.98328917,0.0003065,70.0,222.1248,271.7649,88.3159,3.4635e-06,-5.2e-07,0.0,0 STARLINK-5797,1 55784U 23028AV  24078.81180876 -.00000052  00000-0  34635-5 0  9998,2 55784  70.0000 222.1248 0003065 271.7649  88.3159 14.98328917 59043,6950.196,96.107,574.191,569.931,0.0
55784.0,STARLINK-5797,PAYLOAD,2024-03-19 11:30:20,14.98336076,0.0003159,70.0001,220.4415,273.0322,87.0475,1.5906e-05,9.7e-07,0.0,0 STARLINK-5797,1 55784U 23028AV  24079.47940317  .00000097  00000-0  15906-4 0  9992,2 55784  70.0001 220.4415 0003159 273.0322  87.0475 14.98336076 59141,6950.174,96.107,574.235,569.844,0.0
55784.0,STARLINK-5797,PAYLOAD,2024-03-19 19:30:59,14.9834468,0.0003082,70.0002,219.5999,272.7036,87.377,0.00011313,1.258e-05,0.0,0 STARLINK-5797,1 55784U 23028AV  24079.81319294  .00001258  00000-0  11313-3 0  9991,2 55784  70.0002 219.5999 0003082 272.7036  87.3770 14.98344680 59197,6950.147,96.106,574.155,569.87,0.0
55784.0,STARLINK-5797,PAYLOAD,2024-03-20 09:56:13,14.98325191,0.0003301,70.0039,218.0909,285.3185,74.7609,-2.9742e-06,-1.28e-06,0.0,0 STARLINK-5797,1 55784U 23028AV  24080.41404958 -.00000128  00000-0 -29742-5 0  9995,2 55784  70.0039 218.0909 0003301 285.3185  74.7609 14.98325191 59288,6950.208,96.107,574.367,569.778,0.0
55784.0,STARLINK-5797,PAYLOAD,2024-03-20 13:08:30,14.98321107,0.0003273,69.9992,217.7462,277.9671,82.1117,-7.4614e-05,-9.83e-06,0.0,0 STARLINK-5797,1 55784U 23028AV  24080.54757384 -.00000983  00000-0 -74614-4 0  9999,2 55784  69.9992 217.7462 0003273 277.9671  82.1117 14.98321107 59301,6950.22,96.108,574.36,569.811,0.0
55784.0,STARLINK-5797,PAYLOAD,2024-03-20 17:56:54,14.98324189,0.0003096,69.9999,217.2433,271.1549,88.9255,-4.2544e-05,-6.01e-06,0.0,0 STARLINK-5797,1 55784U 23028AV  24080.74785136 -.00000601  00000-0 -42544-4 0  9991,2 55784  69.9999 217.2433 0003096 271.1549  88.9255 14.98324189 59337,6950.211,96.107,574.228,569.924,0.0
55784.0,STARLINK-5797,PAYLOAD,2024-03-21 13:10:30,14.98335855,0.0002983,70.0006,215.2242,266.1687,93.9131,-7.9895e-05,-1.046e-05,0.0,0 STARLINK-5797,1 55784U 23028AV  24081.54896584 -.00001046  00000-0 -79895-4 0  9993,2 55784  70.0006 215.2242 0002983 266.1687  93.9131 14.98335855 59450,6950.175,96.107,574.113,569.967,0.0
55784.0,STARLINK-5797,PAYLOAD,2024-03-21 14:46:38,14.98335705,0.0002799,70.0009,215.0559,261.2933,98.7909,-4.8322e-05,-6.7e-06,0.0,0 STARLINK-5797,1 55784U 23028AV  24081.61572459 -.00000670  00000-0 -48322-4 0  9996,2 55784  70.0009 215.0559 0002799 261.2933  98.7909 14.98335705 59468,6950.175,96.107,573.986,570.095,0.0
55784.0,STARLINK-5797,PAYLOAD,2024-03-21 19:35:02,14.98341005,0.0002539,70.0016,214.5477,263.7823,96.3046,2.913e-05,2.55e-06,0.0,0 STARLINK-5797,1 55784U 23028AV  24081.81599855  .00000255  00000-0  29130-4 0  9990,2 55784  70.0016 214.5477 0002539 263.7823  96.3046 14.98341005 59495,6950.159,96.106,573.789,570.259,0.0
55784.0,STARLINK-5797,PAYLOAD,2024-03-22 11:36:23,14.98327047,0.0002487,70.0013,212.8644,262.1901,97.8975,0.00015323,1.736e-05,0.0,0 STARLINK-5797,1 55784U 23028AV  24082.48360150  .00001736  00000-0  15323-3 0  9991,2 55784  70.0013 212.8644 0002487 262.1901  97.8975 14.98327047 59599,6950.202,96.107,573.796,570.339,0.0
55784.0,STARLINK-5797,PAYLOAD,2024-03-22 14:48:39,14.98312512,0.0002423,70.0017,212.5281,246.8491,113.2413,0.00041225,4.827e-05,0.0,0 STARLINK-5797,1 55784U 23028AV  24082.61712292  .00004827  00000-0  41225-3 0  9998,2 55784  70.0017 212.5281 0002423 246.8491 113.2413 14.98312512 59614,6950.247,96.108,573.796,570.428,0.0
55784.0,STARLINK-5797,PAYLOAD,2024-03-22 18:00:55,14.98318704,0.0002465,70.0019,212.1925,243.0397,117.051,0.0003674,4.292e-05,0.0,0 STARLINK-5797,1 55784U 23028AV  24082.75064097  .00004292  00000-0  36740-3 0  9998,2 55784  70.0019 212.1925 0002465 243.0397 117.0510 14.98318704 59638,6950.228,96.108,573.806,570.38,0.0
55784.0,STARLINK-5797,PAYLOAD,2024-03-23 11:38:24,14.98329504,0.0002433,70.0026,210.3444,243.1003,116.9907,-7.036e-05,-9.32e-06,0.0,0 STARLINK-5797,1 55784U 23028AV  24083.48500592 -.00000932  00000-0 -70360-4 0  9990,2 55784  70.0026 210.3444 0002433 243.1003 116.9907 14.98329504 59742,6950.194,96.107,573.75,570.368,0.0
55784.0,STARLINK-5797,PAYLOAD,2024-03-23 18:02:56,14.9832879,0.00028,70.0011,209.6696,264.5831,95.5009,-6.0433e-05,-8.14e-06,0.0,0 STARLINK-5797,1 55784U 23028AV  24083.75204662 -.00000814  00000-0 -60433-4 0  9998,2 55784  70.0011 209.6696 0002800 264.5831  95.5009 14.98328790 59785,6950.197,96.107,574.008,570.116,0.0
55784.0,STARLINK-5797,PAYLOAD,2024-03-24 13:16:33,14.983353,0.0002784,70.002,207.6491,271.3108,88.7732,-2.0437e-05,-3.37e-06,0.0,0 STARLINK-5797,1 55784U 23028AV  24084.55316026 -.00000337  00000-0 -20437-4 0  9995,2 55784  70.0020 207.6491 0002784 271.3108  88.7732 14.98335300 59906,6950.177,96.107,573.976,570.107,0.0
55784.0,STARLINK-5797,PAYLOAD,2024-03-24 14:52:40,14.98336751,0.0002658,70.0017,207.4803,269.8796,90.2059,1.2225e-05,5.3e-07,0.0,0 STARLINK-5797,1 55784U 23028AV  24084.61991811  .00000053  00000-0  12225-4 0  9992,2 55784  70.0017 207.4803 0002658 269.8796  90.2059 14.98336751 59914,6950.172,96.107,573.884,570.19,0.0
55784.0,STARLINK-5797,PAYLOAD,2024-03-24 18:04:56,14.98341581,0.0002501,70.003,207.148,256.151,103.9371,6.6298e-05,6.98e-06,0.0,0 STARLINK-5797,1 55784U 23028AV  24084.75343234  .00000698  00000-0  66298-4 0  9991,2 55784  70.0030 207.1480 0002501 256.1510 103.9371 14.98341581 59935,6950.157,96.106,573.76,570.284,0.0
55784.0,STARLINK-5797,PAYLOAD,2024-03-25 11:42:26,14.98326049,0.000289,70.0011,205.2938,258.6908,101.3926,-5.5976e-06,-1.6e-06,0.0,0 STARLINK-5797,1 55784U 23028AV  24085.48780227 -.00000160  00000-0 -55976-5 0  9997,2 55784  70.0011 205.2938 0002890 258.6908 101.3926 14.98326049 60044,6950.205,96.107,574.079,570.061,0.0
55784.0,STARLINK-5797,PAYLOAD,2024-03-25 18:06:58,14.98329826,0.0002804,70.0015,204.6217,258.2673,101.8171,5.6026e-05,5.76e-06,0.0,0 STARLINK-5797,1 55784U 23028AV  24085.75483925  .00000576  00000-0  56026-4 0  9997,2 55784  70.0015 204.6217 0002804 258.2673 101.8171 14.98329826 60088,6950.193,96.107,574.007,570.11,0.0
55784.0,STARLINK-5797,PAYLOAD,2024-03-26 11:44:28,14.98320325,0.0002885,70.0009,202.7691,273.4677,86.6152,-0.00022732,-2.804e-05,0.0,0 STARLINK-5797,1 55784U 23028AV  24086.48921807 -.00002804  00000-0 -22732-3 0  9998,2 55784  70.0009 202.7691 0002885 273.4677  86.6152 14.98320325 60194,6950.223,96.108,574.093,570.083,0.0
55784.0,STARLINK-5797,PAYLOAD,2024-03-26 14:56:44,14.98317316,0.0002334,70.0029,202.4344,260.8306,99.2589,-0.0001794,-2.232e-05,0.0,0 STARLINK-5797,1 55784U 23028AV  24086.62273979 -.00002232  00000-0 -17940-3 0  9994,2 55784  70.0029 202.4344 0002334 260.8306  99.2589 14.98317316 60219,6950.232,96.108,573.719,570.475,0.0
55784.0,STARLINK-5797,PAYLOAD,2024-03-26 16:32:52,14.98317724,0.0002341,70.0027,202.2659,262.5546,97.5347,-0.00019385,-2.404e-05,0.0,0 STARLINK-5797,1 55784U 23028AV  24086.68950047 -.00002404  00000-0 -19385-3 0  9994,2 55784  70.0027 202.2659 0002341 262.5546  97.5347 14.98317724 60224,6950.231,96.108,573.723,570.469,0.0
55784.0,STARLINK-5797,PAYLOAD,2024-03-27 00:33:32,14.98325158,0.0002455,70.0027,201.4246,260.1987,99.8895,-0.00014346,-1.804e-05,0.0,0 STARLINK-5797,1 55784U 23028AV  24087.02329591 -.00001804  00000-0 -14346-3 0  9992,2 55784  70.0027 201.4246 0002455 260.1987  99.8895 14.98325158 60274,6950.208,96.107,573.779,570.367,0.0
55784.0,STARLINK-5797,PAYLOAD,2024-03-27 13:22:34,14.98347929,0.0002525,70.003,200.0782,255.8573,104.2306,0.00031763,3.701e-05,0.0,0 STARLINK-5797,1 55784U 23028AV  24087.55734540  .00003701  00000-0  31763-3 0  9992,2 55784  70.0030 200.0782 0002525 255.8573 104.2306 14.98347929 60355,6950.137,96.106,573.757,570.248,0.0
55784.0,STARLINK-5797,PAYLOAD,2024-03-27 16:34:49,14.98358332,0.0002957,70.0005,199.7381,262.9487,97.1336,0.00036375,4.253e-05,0.0,0 STARLINK-5797,1 55784U 23028AV  24087.69085497  .00004253  00000-0  36375-3 0  9994,2 55784  70.0005 199.7381 0002957 262.9487  97.1336 14.98358332 60373,6950.105,96.105,574.025,569.915,0.0
55784.0,STARLINK-5797,PAYLOAD,2024-03-28 11:48:35,14.98243303,0.0002556,70.0015,197.7208,259.792,100.2951,-0.00079818,-9.582e-05,0.0,0 STARLINK-5797,1 55784U 23028AV  24088.49207423 -.00009582  00000-0 -79818-3 0  9999,2 55784  70.0015 197.7208 0002556 259.7920 100.2951 14.98243303 60494,6950.461,96.113,574.103,570.549,0.0
55784.0,STARLINK-5797,PAYLOAD,2024-03-28 18:13:02,14.9832301,0.0002541,70.0013,197.047,239.6362,120.4546,0.00012479,1.396e-05,0.0,0 STARLINK-5797,1 55784U 23028AV  24088.75905628  .00001396  00000-0  12479-3 0  9993,2 55784  70.0013 197.0470 0002541 239.6362 120.4546 14.98323010 60530,6950.215,96.107,573.846,570.313,0.0
55784.0,STARLINK-5797,PAYLOAD,2024-03-29 11:50:32,14.9831559,0.0002449,70.0024,195.1948,256.9045,103.1841,-0.0004134,-5.02e-05,0.0,0 STARLINK-5797,1 55784U 23028AV  24089.49343325 -.00005020  00000-0 -41340-3 0  9994,2 55784  70.0024 195.1948 0002449 256.9045 103.1841 14.98315590 60640,6950.237,96.108,573.805,570.4,0.0
55784.0,STARLINK-5797,PAYLOAD,2024-03-29 16:38:56,14.98327999,0.000301,70.0012,194.6902,269.6577,90.4237,-0.00038619,-4.698e-05,0.0,0 STARLINK-5797,1 55784U 23028AV  24089.69370597 -.00004698  00000-0 -38619-3 0  9992,2 55784  70.0012 194.6902 0003010 269.6577  90.4237 14.98327999 60673,6950.199,96.107,574.156,569.972,0.0
